NORAD_CAT_ID,OBJECT_NAME,OBJECT_TYPE,EPOCH,MEAN_MOTION,ECCENTRICITY,INCLINATION,RA_OF_ASC_NODE,ARG_OF_PERICENTER,MEAN_ANOMALY,BSTAR,MEAN_MOTION_DOT,MEAN_MOTION_DDOT,TLE_LINE0,TLE_LINE1,TLE_LINE2,SEMIMAJOR_AXIS,PERIOD,APOGEE,PERIGEE,DECAYED
53032.0,STARLINK-4115,PAYLOAD,2024-01-28 03:38:27,15.08848914,0.0001484,53.2189,307.6872,100.5566,259.5593,0.00013674,1.889e-05,0.0,0 STARLINK-4115,1 53032U 22076AY  24028.15170816  .00001889  00000-0  13674-3 0  9995,2 53032  53.2189 307.6872 0001484 100.5566 259.5593 15.08848914 86983,6917.853,95.437,540.745,538.692,0.0
53032.0,STARLINK-4115,PAYLOAD,2024-01-28 19:32:20,15.08836843,0.0001375,53.2183,304.7167,85.8367,274.2782,-1.6067e-05,-5.44e-06,0.0,0 STARLINK-4115,1 53032U 22076AY  24028.81412182 -.00000544  00000-0 -16067-4 0  9992,2 53032  53.2183 304.7167 0001375  85.8367 274.2782 15.08836843 87089,6917.89,95.438,540.706,538.804,0.0
53032.0,STARLINK-4115,PAYLOAD,2024-01-28 22:43:05,15.08841199,0.0001829,53.2186,304.1202,110.3657,249.7532,4.8649e-06,-2.11e-06,0.0,0 STARLINK-4115,1 53032U 22076AY  24028.94659717 -.00000211  00000-0  48649-5 0  9995,2 53032  53.2186 304.1202 0001829 110.3657 249.7532 15.08841199 86636,6917.877,95.437,541.007,538.476,0.0
53032.0,STARLINK-4115,PAYLOAD,2024-01-29 01:53:52,15.08841757,0.0001556,53.2189,303.5253,85.4414,274.6756,2.4766e-05,1.06e-06,0.0,0 STARLINK-4115,1 53032U 22076AY  24029.07907758  .00000106  00000-0  24766-4 0  9996,2 53032  53.2189 303.5253 0001556  85.4414 274.6756 15.08841757 87128,6917.875,95.437,540.816,538.664,0.0
53032.0,STARLINK-4115,PAYLOAD,2024-01-29 17:47:43,15.08845111,0.0001537,53.2189,300.5528,88.1409,271.9759,-2.4588e-05,-6.79e-06,0.0,0 STARLINK-4115,1 53032U 22076AY  24029.74147736 -.00000679  00000-0 -24588-4 0  9991,2 53032  53.2189 300.5528 0001537  88.1409 271.9759 15.08845111 86752,6917.865,95.437,540.793,538.666,0.0
53032.0,STARLINK-4115,PAYLOAD,2024-01-30 03:20:01,15.08850425,0.000151,53.2186,298.7702,90.8213,269.2952,1.544e-05,-4.2e-07,0.0,0 STARLINK-4115,1 53032U 22076AY  24030.13891035 -.00000042  00000-0  15440-4 0  9994,2 53032  53.2186 298.7702 0001510  90.8213 269.2952 15.08850425 87283,6917.849,95.437,540.758,538.669,0.0
53032.0,STARLINK-4115,PAYLOAD,2024-01-30 22:24:40,15.08840049,0.000162,53.2185,295.2049,79.9947,280.1228,1.8322e-05,4e-08,0.0,0 STARLINK-4115,1 53032U 22076AY  24030.93379721  .00000004  00000-0  18322-4 0  9994,2 53032  53.2185 295.2049 0001620  79.9947 280.1228 15.08840049 86932,6917.88,95.438,540.866,538.625,0.0
53032.0,STARLINK-4115,PAYLOAD,2024-01-31 00:00:03,15.08841088,0.0001569,53.2178,294.9079,80.7619,279.355,2.7226e-05,1.45e-06,0.0,0 STARLINK-4115,1 53032U 22076AY  24031.00003621  .00000145  00000-0  27226-4 0  9995,2 53032  53.2178 294.9079 0001569  80.7619 279.3550 15.08841088 87417,6917.877,95.437,540.827,538.657,0.0
53032.0,STARLINK-4115,PAYLOAD,2024-01-31 23:50:50,15.08848042,0.0001747,53.2179,290.4445,84.1748,275.9444,-0.00016375,-2.894e-05,0.0,0 STARLINK-4115,1 53032U 22076AY  24031.99363806 -.00002894  00000-0 -16375-3 0  9994,2 53032  53.2179 290.4445 0001747  84.1748 275.9444 15.08848042 87090,6917.856,95.437,540.929,538.512,0.0
53032.0,STARLINK-4115,PAYLOAD,2024-02-01 23:41:38,15.0880404,0.0001766,53.2175,285.9826,86.6195,273.4999,0.00046708,7.146e-05,0.0,0 STARLINK-4115,1 53032U 22076AY  24032.98724559  .00007146  00000-0  46708-3 0  9996,2 53032  53.2175 285.9826 0001766  86.6195 273.4999 15.08804040 87719,6917.99,95.44,541.077,538.634,0.0
53032.0,STARLINK-4115,PAYLOAD,2024-02-02 21:57:01,15.08835352,0.0001558,53.2174,281.823,85.4684,274.6486,-8.8101e-06,-4.28e-06,0.0,0 STARLINK-4115,1 53032U 22076AY  24033.91460367 -.00000428  00000-0 -88101-5 0  9997,2 53032  53.2174 281.8230 0001558  85.4684 274.6486 15.08835352 87388,6917.895,95.438,540.837,538.682,0.0
53032.0,STARLINK-4115,PAYLOAD,2024-02-03 02:43:11,15.08835506,0.0001482,53.2175,280.9247,87.8245,272.2917,2.9222e-05,1.77e-06,0.0,0 STARLINK-4115,1 53032U 22076AY  24034.11332348  .00000177  00000-0  29222-4 0  9994,2 53032  53.2175 280.9247 0001482  87.8245 272.2917 15.08835506 87881,6917.894,95.438,540.784,538.734,0.0
53032.0,STARLINK-4115,PAYLOAD,2024-02-03 21:47:48,15.08835317,0.0001466,53.2173,277.3561,97.9367,262.1791,5.1803e-05,5.36e-06,0.0,0 STARLINK-4115,1 53032U 22076AY  24034.90820455  .00000536  00000-0  51803-4 0  9991,2 53032  53.2173 277.3561 0001466  97.9367 262.1791 15.08835317 87537,6917.895,95.438,540.774,538.746,0.0
53032.0,STARLINK-4115,PAYLOAD,2024-02-04 00:58:34,15.08839144,0.0001492,53.2174,276.7608,86.6903,273.4259,7.974e-05,9.81e-06,0.0,0 STARLINK-4115,1 53032U 22076AY  24035.04068215  .00000981  00000-0  79740-4 0  9999,2 53032  53.2174 276.7608 0001492  86.6903 273.4259 15.08839144 87551,6917.883,95.438,540.78,538.716,0.0
53032.0,STARLINK-4115,PAYLOAD,2024-02-04 20:03:12,15.08838895,0.0001513,53.2173,273.1923,86.6006,273.5159,6.6697e-05,7.74e-06,0.0,0 STARLINK-4115,1 53032U 22076AY  24035.83556413  .00000774  00000-0  66697-4 0  9995,2 53032  53.2173 273.1923 0001513  86.6006 273.5159 15.08838895 88147,6917.884,95.438,540.795,538.702,0.0
53032.0,STARLINK-4115,PAYLOAD,2024-02-04 21:38:35,15.08838846,0.0001505,53.2173,272.895,86.3613,273.7551,6.2975e-05,7.14e-06,0.0,0 STARLINK-4115,1 53032U 22076AY  24035.90180414  .00000714  00000-0  62975-4 0  9996,2 53032  53.2173 272.8950 0001505  86.3613 273.7551 15.08838846 87687,6917.884,95.438,540.79,538.708,0.0
53032.0,STARLINK-4115,PAYLOAD,2024-02-05 00:49:22,15.08840973,0.0001482,53.2172,272.3005,82.5222,277.5939,7.4029e-05,8.9e-06,0.0,0 STARLINK-4115,1 53032U 22076AY  24036.03428269  .00000890  00000-0  74029-4 0  9992,2 53032  53.2172 272.3005 0001482  82.5222 277.5939 15.08840973 87709,6917.877,95.437,540.768,538.717,0.0
53032.0,STARLINK-4115,PAYLOAD,2024-02-05 21:29:22,15.08842946,0.0001429,53.2166,268.4362,79.247,280.8683,2.909e-05,1.75e-06,0.0,0 STARLINK-4115,1 53032U 22076AY  24036.89540339  .00000175  00000-0  29090-4 0  9993,2 53032  53.2166 268.4362 0001429  79.2470 280.8683 15.08842946 87832,6917.871,95.437,540.725,538.748,0.0
53032.0,STARLINK-4115,PAYLOAD,2024-02-06 00:40:08,15.08847014,0.0001462,53.217,267.84,79.8266,280.2891,6.3769e-05,7.27e-06,0.0,0 STARLINK-4115,1 53032U 22076AY  24037.02787928  .00000727  00000-0  63769-4 0  9990,2 53032  53.2170 267.8400 0001462  79.8266 280.2891 15.08847014 88320,6917.859,95.437,540.735,538.713,0.0
53032.0,STARLINK-4115,PAYLOAD,2024-02-06 19:44:46,15.08844186,0.000142,53.2173,264.2688,85.3267,274.7888,-2.2946e-05,-6.53e-06,0.0,0 STARLINK-4115,1 53032U 22076AY  24037.82276245 -.00000653  00000-0 -22946-4 0  9995,2 53032  53.2173 264.2688 0001420  85.3267 274.7888 15.08844186 88443,6917.868,95.437,540.715,538.75,0.0
53032.0,STARLINK-4115,PAYLOAD,2024-02-06 21:20:09,15.08843807,0.0001463,53.2169,263.9717,84.5804,275.5355,2.0849e-05,4.4e-07,0.0,0 STARLINK-4115,1 53032U 22076AY  24037.88900127  .00000044  00000-0  20849-4 0  9996,2 53032  53.2169 263.9717 0001463  84.5804 275.5355 15.08843807 87987,6917.869,95.437,540.746,538.722,0.0
53032.0,STARLINK-4115,PAYLOAD,2024-02-07 08:27:51,15.08841622,0.000126,53.2157,261.8904,101.5296,258.5837,3.942e-05,3.4e-06,0.0,0 STARLINK-4115,1 53032U 22076AY  24038.35267970  .00000340  00000-0  39420-4 0  9995,2 53032  53.2157 261.8904 0001260 101.5296 258.5837 15.08841622 88057,6917.875,95.437,540.612,538.869,0.0
53032.0,STARLINK-4115,PAYLOAD,2024-02-07 21:10:57,15.08839482,0.0001515,53.2164,259.5125,120.1351,239.9792,-5.5977e-05,-1.179e-05,0.0,0 STARLINK-4115,1 53032U 22076AY  24038.88260463 -.00001179  00000-0 -55977-4 0  9991,2 53032  53.2164 259.5125 0001515 120.1351 239.9792 15.08839482 88139,6917.882,95.438,540.795,538.699,0.0
53032.0,STARLINK-4115,PAYLOAD,2024-02-08 00:21:43,15.08840444,0.000154,53.2172,258.9168,109.5279,250.588,-4.5219e-05,-1.008e-05,0.0,0 STARLINK-4115,1 53032U 22076AY  24039.01508422 -.00001008  00000-0 -45219-4 0  9996,2 53032  53.2172 258.9168 0001540 109.5279 250.5880 15.08840444 88627,6917.879,95.438,540.809,538.679,0.0
53032.0,STARLINK-4115,PAYLOAD,2024-02-08 21:01:44,15.0883948,0.0001578,53.2173,255.0513,103.2778,256.839,2.0332e-05,3.6e-07,0.0,0 STARLINK-4115,1 53032U 22076AY  24039.87620421  .00000036  00000-0  20332-4 0  9991,2 53032  53.2173 255.0513 0001578 103.2778 256.8390 15.08839480 88281,6917.882,95.438,540.839,538.655,0.0
53032.0,STARLINK-4115,PAYLOAD,2024-02-09 00:12:30,15.08839472,0.0001576,53.2173,254.4567,103.0962,257.0206,1.9869e-05,2.8e-07,0.0,0 STARLINK-4115,1 53032U 22076AY  24040.00868430  .00000028  00000-0  19869-4 0  9996,2 53032  53.2173 254.4567 0001576 103.0962 257.0206 15.08839472 88307,6917.882,95.438,540.837,538.657,0.0
53032.0,STARLINK-4115,PAYLOAD,2024-02-09 19:17:07,15.08839401,0.000148,53.2171,250.8892,100.3461,259.7698,8.5016e-05,1.065e-05,0.0,0 STARLINK-4115,1 53032U 22076AY  24040.80356292  .00001065  00000-0  85016-4 0  9991,2 53032  53.2171 250.8892 0001480 100.3461 259.7698 15.08839401 88894,6917.882,95.438,540.771,538.723,0.0
53032.0,STARLINK-4115,PAYLOAD,2024-02-10 00:03:17,15.08840716,0.0001451,53.2169,249.9969,99.5198,260.5958,8.3659e-05,1.044e-05,0.0,0 STARLINK-4115,1 53032U 22076AY  24041.00228216  .00001044  00000-0  83659-4 0  9996,2 53032  53.2169 249.9969 0001451  99.5198 260.5958 15.08840716 88451,6917.878,95.438,540.747,538.739,0.0
53032.0,STARLINK-4115,PAYLOAD,2024-02-10 20:43:18,15.08832276,0.0001401,53.2169,246.1305,93.3055,266.8098,-2.1312e-05,-6.27e-06,0.0,0 STARLINK-4115,1 53032U 22076AY  24041.86341413 -.00000627  00000-0 -21312-4 0  9991,2 53032  53.2169 246.1305 0001401  93.3055 266.8098 15.08832276 89056,6917.904,95.438,540.738,538.8,0.0
53032.0,STARLINK-4115,PAYLOAD,2024-02-10 23:54:05,15.08831557,0.0001405,53.2169,245.5362,92.9645,267.1508,-2.8556e-05,-7.42e-06,0.0,0 STARLINK-4115,1 53032U 22076AY  24041.99589536 -.00000742  00000-0 -28556-4 0  9990,2 53032  53.2169 245.5362 0001405  92.9645 267.1508 15.08831557 88607,6917.906,95.438,540.743,538.799,0.0
